[{"OBJECT_NAME":"JILIN-1 09","OBJECT_ID":"2019-005B","EPOCH":"2026-03-09T21:49:20.163360","MEAN_MOTION":15.19514186,"ECCENTRICITY":0.00037399,"INCLINATION":97.4701,"RA_OF_ASC_NODE":164.8178,"ARG_OF_PERICENTER":87.3947,"MEAN_ANOMALY":272.7716,"EPHEMERIS_TYPE":0,"CLASSIFICATION_TYPE":"U","NORAD_CAT_ID":43943,"ELEMENT_SET_NO":999,"REV_AT_EPOCH":39406,"BSTAR":0.00030815291,"MEAN_MOTION_DOT":6.478e-5,"MEAN_MOTION_DDOT":0},{"OBJECT_NAME":"WISDOM A","OBJECT_ID":"2025-276Y","EPOCH":"2026-03-09T17:03:25.278336","MEAN_MOTION":15.18235273,"ECCENTRICITY":0.00046161,"INCLINATION":97.4292,"RA_OF_ASC_NODE":143.9314,"ARG_OF_PERICENTER":4.7568,"MEAN_ANOMALY":355.3709,"EPHEMERIS_TYPE":0,"CLASSIFICATION_TYPE":"U","NORAD_CAT_ID":66688,"ELEMENT_SET_NO":999,"REV_AT_EPOCH":1531,"BSTAR":0.0003214307,"MEAN_MOTION_DOT":6.515e-5,"MEAN_MOTION_DDOT":0}]
